KUIPER-00225            
1 67784U 26030W   26064.00944956  .00028249  00000+0  80935-3 0  9990
2 67784  51.8810 241.6996 0004128  26.5884 333.5314 15.35688077  4378
KUIPER-00226            
1 67785U 26030X   26063.99168660  .00036832  00000+0  12009-2 0  9991
2 67785  51.8805 242.3152 0019968  59.9274 300.3687 15.31268779  4369
KUIPER-00259            
1 67786U 26030Y   26063.95511546  .00035313  00000+0  10341-2 0  9993
2 67786  51.8811 242.0820 0008258  35.7954 324.3583 15.34866797  4361
KUIPER-00260            
1 67787U 26030Z   26064.00193103  .00031664  00000+0  88945-3 0  9997
2 67787  51.8797 241.6502 0001010  51.9851 308.1227 15.36252409  4289
KUIPER-00262            
1 67788U 26030AA  26063.99849446  .00037288  00000+0  10341-2 0  9995
2 67788  51.8807 241.6308 0000355 117.8319 242.2704 15.36571962  4374
KUIPER-00266            
1 67789U 26030AB  26063.99620107  .00024194  00000+0  80059-3 0  9993
2 67789  51.8805 242.3416 0022736  59.5056 300.8170 15.30959366  4367
KUIPER-00268            
1 67790U 26030AC  26064.00695861  .00037075  00000+0  10541-2 0  9997
2 67790  51.8846 241.6907 0002453  35.7027 324.4123 15.35796041  4374
KUIPER-00270            
1 67791U 26030AD  26063.96039897  .00026518  00000+0  79052-3 0  9996
2 67791  51.8808 242.1152 0010049  43.4412 316.7364 15.34436452  4361
KUIPER-00274            
1 67792U 26030AE  26064.18136266 -.00034790  00000+0 -11184-2 0  9994
2 67792  51.8814 241.3433 0018670  57.2432 303.0348 15.31367467  4395
KUIPER-00275            
1 67793U 26030AF  26063.95780515  .00035353  00000+0  10466-2 0  9997
2 67793  51.8843 242.1080 0008964  39.4841 320.6796 15.34518049  4362
KUIPER-00276            
1 67794U 26030AG  26064.18535151  .00031853  00000+0  10384-2 0  9998
2 67794  51.8807 241.3676 0018844  54.6829 305.5914 15.31368165  4394
KUIPER-00279            
1 67795U 26030AH  26063.95122949  .00031226  00000+0  90688-3 0  9990
2 67795  51.8801 242.0547 0006441  34.4125 325.7277 15.35198982  4364
CREW DRAGON 12          
1 67796U 26031A   26063.86671769  .00009014  00000+0  17477-3 0  9996
2 67796  51.6315  96.2009 0008177 157.5272 202.6076 15.48447334555490
STARLINK-36800          
1 67797U 26032A   26064.11954080  .00147559  00000+0  97207-3 0  9993
2 67797  97.2840 250.3766 0001260  92.0609 268.0801 15.75216270  4063
STARLINK-36798          
1 67798U 26032B   26064.16668981 -.00034795  00000+0 -23312-3 0  9996
2 67798  97.2844 250.4665 0002058  85.0362 274.2679 15.75211059  3994
STARLINK-36804          
1 67799U 26032C   26064.11777910  .00155626  00000+0  10240-2 0  9995
2 67799  97.2840 250.3790 0001342  80.8813 279.2604 15.75221042  4063
STARLINK-36354          
1 67800U 26032D   26064.16668981 -.00069260  00000+0 -46665-3 0  9991
2 67800  97.2872 250.4584 0001656 102.7449 236.5461 15.75218131  4051
